,query,counter,status,continent,continentCode,country,countryCode,region,regionName,city,district,zip,lat,lon,timezone,offset,currency,isp,org,as,asname,mobile,proxy,hosting
0,192.151.223.58,18,success,亚洲,AS,中国,CN,SC,四川省,成都,,610003,30.5728,104.067,Asia/Shanghai,28800,CNY,CloudRadium L.L.C,yiyou network,AS40065 CNSERVERS LLC,CNSERVERS,False,False,True
1,177.36.71.212,18,success,南美洲,SA,巴西,BR,MG,米纳斯吉拉斯州,Entre Rios de Minas,,35490,-20.703,-44.1103,America/Sao_Paulo,-10800,BRL,Paulo Marques De Araujo - ME,Paulo Marques De Araujo - ME,AS270951 PAULO MARQUES DE ARAUJO - ME,PAULO MARQUES DE ARAUJO - ME,False,False,False
2,116.237.89.146,18,success,亚洲,AS,中国,CN,SH,上海,上海,,,31.2222,121.4581,Asia/Shanghai,28800,CNY,China Telecom (Group),Chinanet SH,AS4812 China Telecom (Group),CHINANET-SH-AP,False,False,False
3,146.120.179.237,171,success,欧洲,EU,俄罗斯联邦,RU,BEL,Belgorod Oblast,别尔哥罗德,,308000,50.6165,36.5758,Europe/Moscow,10800,RUB,Regional TeleSystem Ltd,Regional TeleSystem Group Ltd,AS49963 Regional TeleSystem Ltd,BELRTS-AS,True,False,False
4,176.145.163.207,36,success,欧洲,EU,法国,FR,PAC,普罗旺斯-阿尔卑斯-蓝色海岸,普罗旺斯地区萨隆,,13300,43.6417,5.0952,Europe/Paris,7200,EUR,BOUYGUES Telecom,,AS5410 Bouygues Telecom SA,BOUYGTEL-ISP,False,False,False
5,185.183.95.173,18,success,欧洲,EU,乌克兰,UA,07,Volyn,Lutsk,,43025,50.7614,25.331,Europe/Kiev,10800,UAH,Volyn Optical Networks LLC,VOM LLC,AS35586 VOLYN OPTICAL NETWORKS LLC,VOM,False,False,False
6,60.225.218.194,9,success,大洋洲,OC,澳大利亚,AU,SA,South Australia,阿德莱德,,5000,-34.9281,138.5999,Australia/Adelaide,34200,AUD,Telstra Corporation Limited,Telstra Corporation,AS1221 Telstra Corporation Ltd,ASN-TELSTRA,False,False,False
7,217.159.203.107,36,success,欧洲,EU,爱沙尼亚,EE,37,哈爾尤縣,塔林,Kristiine linnaosa,,59.4282,24.7041,Europe/Tallinn,10800,EUR,Telia Eesti AS,,AS3249 Telia Eesti AS,ESTPAK,False,False,False
8,180.211.137.9,18,success,亚洲,AS,孟加拉,BD,C,Dhaka Division,达卡,Ramna Maidan,1208,23.7484,90.4079,Asia/Dhaka,21600,BDT,Bangladesh Telegraph & Telephone Board,,"AS45588 Bangladesh Telecommunications Company Limited (BTCL), Nationwide PSTN Operator and Data and Internet Service Provider.",BTCL-ISP-AS,False,False,False
9,189.56.166.5,9,success,南美洲,SA,巴西,BR,SP,Sao Paulo,聖保羅,,01000-000,-23.5558,-46.6396,America/Sao_Paulo,-10800,BRL,Vivo,TELEF�NICA BRASIL S.A,AS10429 TELEFÔNICA BRASIL S.A,TELEFÔNICA BRASIL S.A,False,False,False
10,58.153.44.47,9,success,亚洲,AS,香港,HK,HCW,中西區,中環,,96521,22.2908,114.1501,Asia/Hong_Kong,28800,HKD,Hong Kong Telecommunications (HKT) Limited Mass Internet,Hong Kong Telecommunications (HKT) Limited,AS4760 HKT Limited,HKTIMS-AP,False,False,False
11,82.66.77.8,36,success,欧洲,EU,法国,FR,HDF,Hauts-de-France,昂克尔河畔里布蒙,,80800,49.95,2.56667,Europe/Paris,7200,EUR,Proxad / Free SAS,ProXad network / Free SA,AS12322 Free SAS,PROXAD,False,False,False
12,177.36.70.35,9,success,南美洲,SA,巴西,BR,MG,米纳斯吉拉斯州,Entre Rios de Minas,,35490,-20.703,-44.1103,America/Sao_Paulo,-10800,BRL,Paulo Marques De Araujo - ME,Paulo Marques De Araujo - ME,AS270951 PAULO MARQUES DE ARAUJO - ME,PAULO MARQUES DE ARAUJO - ME,False,False,False
13,101.117.99.248,54,success,大洋洲,OC,澳大利亚,AU,VIC,Victoria,墨尔本,,3000,-37.8159,144.9669,Australia/Melbourne,36000,AUD,Vodafone Australia Pty Ltd,Vodafone Australia Pty Ltd,AS133612 Vodafone Australia Pty Ltd,VODAFONE-AS-AP,True,False,False
14,187.92.34.6,18,success,南美洲,SA,巴西,BR,SP,Sao Paulo,聖保羅,,01000,-23.6283,-46.6409,America/Sao_Paulo,-10800,BRL,Vivo,TELEF�NICA BRASIL S.A,AS10429 TELEFÔNICA BRASIL S.A,TELEFÔNICA BRASIL S.A,False,False,False
15,200.73.131.217,18,success,南美洲,SA,阿根廷,AR,C,布宜诺斯艾利斯,巴勒莫,,1870,-34.5751,-58.4359,America/Argentina/Buenos_Aires,-10800,ARS,Telecom Argentina S.A.,Telecom Argentina S.A,AS7303 Telecom Argentina S.A.,Telecom Argentina S.A.,True,True,False
16,119.162.82.66,18,success,亚洲,AS,中国,CN,SD,山东省,济南市,,,36.6756,117.0211,Asia/Shanghai,28800,CNY,CNC Group CHINA169 Shandong Province Network,,AS4837 CHINA UNICOM China169 Backbone,CHINA169-Backbone,False,False,False
17,41.76.170.194,18,success,非洲,AF,肯尼亚,KE,30,Nairobi Province,奈洛比,,09831,-1.2841,36.8155,Africa/Nairobi,10800,KES,GCCN,,AS37219 Information and Communications Technology Authority,ICTA-KE,False,False,False
18,2.177.151.76,36,success,亚洲,AS,伊朗,IR,23,Tehran,德黑兰,,,35.7543,51.4205,Asia/Tehran,16200,IRR,Information Technology Company,,AS58224 Iran Telecommunication Company PJS,TCI,False,False,False
19,45.182.140.238,18,success,南美洲,SA,委内瑞拉,VE,G,Carabobo,巴伦西亚,,,10.1579,-67.9972,America/Caracas,-14400,VEF,"NETCOM PLUS, C.A","NETCOM PLUS, C.A","AS269749 NETCOM PLUS, C.A","NETCOM PLUS, C.A",False,False,False
20,201.168.130.242,18,success,北美洲,NA,墨西哥,MX,CMX,墨西哥城市,伊斯塔帕拉帕,,09850,19.335,-99.0914,America/Mexico_City,-18000,MXN,"Marcatel Com, S.A. de C.V.","Marcatel Com, S.A. de C.V","AS19332 Marcatel Com, S.A. de C.V.","Marcatel Com, S.A. de C.V.",False,False,False
21,119.166.177.58,36,success,亚洲,AS,中国,CN,SD,山东省,青岛市,,,36.061,120.3814,Asia/Shanghai,28800,CNY,CNC Group CHINA169 Shandong Province Network,,AS4837 CHINA UNICOM China169 Backbone,CHINA169-Backbone,False,False,False
22,180.175.70.109,18,success,亚洲,AS,中国,CN,SH,上海,上海,,,31.2222,121.4581,Asia/Shanghai,28800,CNY,China Telecom (Group),Chinanet SH,AS4812 China Telecom (Group),CHINANET-SH-AP,False,False,False
23,82.154.63.218,9,success,欧洲,EU,葡萄牙,PT,11,里斯本區,里斯本,,1300-001,38.731,-9.1373,Europe/Lisbon,3600,EUR,PT Comunicacoes S.A.,PT Comunicacoes S.A.,AS3243 MEO - SERVICOS DE COMUNICACOES E MULTIMEDIA S.A.,MEO-RESIDENCIAL,False,True,False
24,183.195.121.197,18,success,亚洲,AS,中国,CN,SH,上海,上海,,,31.2222,121.4581,Asia/Shanghai,28800,CNY,China Mobile communications corporation,China Mobile Communications Corporation - shanghai company,"AS24400 Shanghai Mobile Communications Co.,Ltd.",CMNET-V4shanghai-AS-AP,True,False,False
25,14.98.242.101,9,success,亚洲,AS,印度,IN,TG,特伦甘纳邦,海得拉巴,,500004,17.4254,78.5075,Asia/Kolkata,19800,INR,Tata Teleservices LTD - Tata Indicom - Cdma Division,Tata Teleservices LTD Cdma,AS45820 Tata Teleservices ISP AS,TTSL-MEISISP,True,False,False
26,178.219.119.106,18,success,欧洲,EU,波兰,PL,02,下西里西亚省,博加蒂尼亞,,59-920,50.9046,14.959,Europe/Warsaw,7200,PLN,C3 NET Sp. z o.o. Sp. k.,C3 NET Sp. z o.o. Sp. k,AS202281 C3 NET Sp. z o.o. Sp. k.,C3-AS,False,False,False
27,79.233.60.241,36,success,欧洲,EU,德国,DE,HE,Hesse,法兰克福,,60313,50.1109,8.68213,Europe/Berlin,7200,EUR,Deutsche Telekom AG,Deutsche Telekom AG,AS3320 Deutsche Telekom AG,DTAG,False,False,False
28,182.19.172.166,9,success,亚洲,AS,新加坡,SG,01,Central Singapore,新加坡,Geylang,408942,1.32429,103.893,Asia/Singapore,28800,SGD,Starhub Internet Pte Ltd,Starhub Internet Pte Ltd,AS55430 Starhub Ltd,STARHUB-NGNBN,False,False,False
29,96.83.219.37,9,success,北美洲,NA,美国,US,NJ,新泽西州,Hillsborough,,08844,40.4856,-74.6265,America/New_York,-14400,USD,"Comcast Cable Communications, LLC","Comcast Cable Communications, LLC","AS7922 Comcast Cable Communications, LLC",COMCAST-7922,False,False,False
30,103.59.204.18,18,success,亚洲,AS,印度,IN,MH,马哈拉施特拉邦,Vasai,,431112,20.5013,75.6604,Asia/Kolkata,19800,INR,JPR Channel,Netsampark,AS142033 JPR Channel,JPRCHANNEL-AS-AP,False,False,False
31,41.74.142.228,18,success,非洲,AF,佛得角,CV,SV,São Vicente,明德盧,,,16.8901,-24.9804,Atlantic/Cape_Verde,-3600,CVE,CVmultimedia ADSL,,AS37517 CV  Multimedia SA,CV-Multimedia,True,False,False
32,195.242.235.184,18,success,欧洲,EU,波兰,PL,02,下西里西亚省,茲戈熱萊茨,,59-900,51.1449,15.0125,Europe/Warsaw,7200,PLN,C3 NET Sp. z o.o. Sp. k.,C3 NET Sp. z o.o. Sp. k,AS202281 C3 NET Sp. z o.o. Sp. k.,C3-AS,False,False,False
33,182.34.182.124,36,success,亚洲,AS,中国,CN,SD,山东省,淄博,,,36.7906,118.0633,Asia/Shanghai,28800,CNY,Chinanet,Chinanet SD,AS4134 CHINANET-BACKBONE,CHINANET-BACKBONE,False,False,False
34,64.225.17.240,9,success,北美洲,NA,美国,US,NJ,新泽西州,克利夫頓,,07014,40.8364,-74.1403,America/New_York,-14400,USD,"DigitalOcean, LLC","DigitalOcean, LLC","AS14061 DigitalOcean, LLC",DIGITALOCEAN-ASN,False,False,True
35,182.148.109.182,18,success,亚洲,AS,中国,CN,SC,四川省,成都,,,30.6498,104.0555,Asia/Shanghai,28800,CNY,Chinanet,Chinanet SC,AS4134 CHINANET-BACKBONE,CHINANET-BACKBONE,False,False,False
36,77.119.123.204,36,success,欧洲,EU,奥地利,AT,9,Vienna,Vienna,,1050,48.1875,16.355,Europe/Vienna,7200,EUR,Hutchison Drei Austria GmbH,H3G Austria GmbH,AS8437 Hutchison Drei Austria GmbH,UTA-AS,True,False,False
37,219.115.18.72,18,success,亚洲,AS,日本,JP,27,Ōsaka,大阪市,,543-0062,34.6946,135.5021,Asia/Tokyo,32400,JPY,JCOM,"J:COM WEST Co., Ltd.","AS9617 JCOM Co., Ltd.",ZAQ,False,False,False
38,120.28.137.125,18,success,亚洲,AS,菲律宾,PH,00,Metro Manila,Marikina City,,1811,14.6426,121.1069,Asia/Manila,28800,PHP,Globe Telecom,,AS132199 Globe Telecom Inc.,GLOBE-MOBILE-5TH-GEN-AS,True,True,False
39,60.171.76.133,18,success,亚洲,AS,中国,CN,AH,安徽,蓉城,,,30.6007,117.925,Asia/Shanghai,28800,CNY,Chinanet,Chinanet AH,AS4134 CHINANET-BACKBONE,CHINANET-BACKBONE,False,False,False
40,200.159.48.45,9,success,南美洲,SA,巴西,BR,SP,Sao Paulo,聖保羅,,01000-000,-23.5505,-46.6333,America/Sao_Paulo,-10800,BRL,Vivo,TELEF�NICA BRASIL S.A,AS10429 TELEFÔNICA BRASIL S.A,TELEFÔNICA BRASIL S.A,False,False,False
41,113.204.147.26,9,success,亚洲,AS,中国,CN,CQ,重庆,重庆市,,,29.5689,106.5577,Asia/Shanghai,28800,CNY,CNC Group CHINA169 Chongqing Province Network,,AS4837 CHINA UNICOM China169 Backbone,CHINA169-Backbone,False,False,False
42,178.219.122.202,18,success,欧洲,EU,波兰,PL,02,下西里西亚省,博加蒂尼亞,,59-920,50.9046,14.959,Europe/Warsaw,7200,PLN,C3 NET Sp. z o.o. Sp. k.,C3 NET Sp. z o.o. Sp. k,AS202281 C3 NET Sp. z o.o. Sp. k.,C3-AS,False,False,False
43,114.132.213.157,12825,success,亚洲,AS,中国,CN,HE,河北省,石家庄市,,,38.0428,114.515,Asia/Shanghai,28800,CNY,CNC Group CHINA169 Hebei Province network,"Tencent cloud computing (Beijing) Co., Ltd.",AS45090 Shenzhen Tencent Computer Systems Company Limited,TENCENT-NET-AP,False,False,False
44,47.39.129.80,36,success,北美洲,NA,美国,US,GA,乔治亚,哥伦布,,31906,32.4596,-84.9486,America/New_York,-14400,USD,Charter Communications,Spectrum,AS20115 Charter Communications,CHARTER-20115,False,False,False
45,66.242.93.229,18,success,北美洲,NA,美国,US,MN,明尼苏达州,明尼阿波利斯,,55436,44.9015,-93.3719,America/Chicago,-18000,USD,Arvig Enterprises Inc.,Arvig Enterprises Inc,AS16904 Arvig Enterprises Inc.,ARVIG,False,False,False
46,185.227.213.131,36,success,欧洲,EU,西班牙,ES,IB,Balearic Islands,Palma,,07013,39.5661,2.6487,Europe/Madrid,7200,EUR,MIRROR,,AS15704 XTRA TELECOM S.A.,AS15704,False,False,False
47,174.58.12.135,9,success,北美洲,NA,美国,US,FL,佛罗里达州,萨拉索塔,,34236,27.3269,-82.5433,America/New_York,-14400,USD,"Comcast Cable Communications, LLC","Comcast Cable Communications, Inc.","AS7922 Comcast Cable Communications, LLC",COMCAST-7922,False,False,False
48,116.236.115.171,9,success,亚洲,AS,中国,CN,SH,上海,上海,,,31.2222,121.4581,Asia/Shanghai,28800,CNY,China Telecom (Group),Chinanet SH,AS4812 China Telecom (Group),CHINANET-SH-AP,False,False,False
49,178.244.221.152,369,success,亚洲,AS,土耳其,TR,34,伊斯坦布尔,伊斯坦布尔,,34096,41.0145,28.9533,Europe/Istanbul,10800,TRY,Turkcell Internet,,AS16135 TURKCELL ILETISIM HIZMETLERI A.S.,TURKCELL-AS,False,False,False
50,61.187.180.200,18,success,亚洲,AS,中国,CN,HN,湖南,衡阳市,,,26.8934,112.572,Asia/Shanghai,28800,CNY,Chinanet,,AS4134 CHINANET-BACKBONE,CHINANET-BACKBONE,False,False,False
51,178.219.116.227,18,success,欧洲,EU,波兰,PL,02,下西里西亚省,博加蒂尼亞,,59-920,50.9046,14.959,Europe/Warsaw,7200,PLN,C3 NET Sp. z o.o. Sp. k.,C3 NET Sp. z o.o. Sp. k,AS202281 C3 NET Sp. z o.o. Sp. k.,C3-AS,False,False,False
52,115.56.115.248,54,success,亚洲,AS,中国,CN,HA,河南,郑州市,,,34.7472,113.625,Asia/Shanghai,28800,CNY,CNC Group CHINA169 Henan Province Network,,AS4837 CHINA UNICOM China169 Backbone,CHINA169-Backbone,False,False,False
53,189.165.71.13,108,success,北美洲,NA,墨西哥,MX,PUE,普埃布拉州,普埃布拉,,72270,19.0436,-98.1981,America/Mexico_City,-18000,MXN,Uninet S.A. de C.V,Gestión de direccionamiento UniNet,AS8151 Uninet S.A. de C.V.,Uninet S.A. de C.V.,False,False,False
54,178.79.148.229,18,success,欧洲,EU,英国,GB,ENG,英格兰,伦敦,,EC2V,51.5164,-0.093,Europe/London,3600,GBP,"Linode, LLC",Linode,"AS63949 Linode, LLC",LINODE-AP,True,True,True
55,31.31.7.3,18,success,欧洲,EU,摩尔多瓦,MD,SN,Transnistria,蒂拉斯波尔,,MD-3300,46.8411,29.6351,Europe/Chisinau,10800,MDL,JSCC Interdnestrcom,,AS1547 Societatea mixta pe actiuni de tip inchis Interdnestrcom,IDK-Network,False,False,False
56,177.99.235.115,18,success,南美洲,SA,巴西,BR,ES,圣埃斯皮里图州,Colatina,,29700,-19.461,-40.6665,America/Sao_Paulo,-10800,BRL,TELEFÔNICA BRASIL S.A,Global Village Telecom,AS18881 TELEFÔNICA BRASIL S.A,TELEFÔNICA BRASIL S.A,False,False,False
57,14.226.21.159,36,success,亚洲,AS,越南,VN,HN,Hanoi,河內市,,,21.0313,105.8516,Asia/Bangkok,25200,VND,VNPT,Vietnam Posts and Telecommunications Group,AS45899 VNPT Corp,VNPT-AS-VN,False,False,False
58,68.13.147.220,243,success,北美洲,NA,美国,US,NE,內布拉斯加州,奥马哈,,68144,41.2327,-96.1138,America/Chicago,-18000,USD,Cox Communications Inc.,Cox Communications Inc.,AS22773 Cox Communications Inc.,ASN-CXA-ALL-CCI-22773-RDC,False,False,False
59,102.152.144.174,54,success,非洲,AF,突尼斯,TN,11,Gouvernorat de Tunis,突尼斯,La Kasbah,,36.7994,10.1652,Africa/Tunis,3600,TND,Tunisie Telecom,,AS327934 SOCIETE NATIONALE DES TELECOMMUNICATIONS (Tunisie Telecom),Tunisie-Telecom,True,False,False
60,68.148.236.203,18,success,北美洲,NA,加拿大,CA,AB,艾伯塔,埃德蒙顿,,T6T,53.4609,-113.3714,America/Edmonton,-21600,CAD,Shaw Communications Inc.,Shaw Communications Inc.,AS6327 Shaw Communications Inc.,SHAW,False,False,False
61,108.170.161.19,18,success,北美洲,NA,加拿大,CA,ON,安大略,金斯顿,,K7M,44.2454,-76.5813,America/Toronto,-14400,CAD,Start Communications,Start Communications,AS40788 Start Communications,START-CA,False,False,False
62,122.247.111.46,315,success,亚洲,AS,中国,CN,ZJ,浙江省,Cixi,,,30.176,121.241,Asia/Shanghai,28800,CNY,Chinanet,,AS4134 CHINANET-BACKBONE,CHINANET-BACKBONE,False,False,False
63,1.64.187.83,36,success,亚洲,AS,香港,HK,HCW,中西區,中環,,96521,22.2908,114.1501,Asia/Hong_Kong,28800,HKD,PCCW IMS Limited,Hong Kong Telecommunications (HKT) Limited,AS4760 HKT Limited,HKTIMS-AP,False,False,False
64,50.111.32.185,108,success,北美洲,NA,美国,US,NC,北卡罗来纳州,Franklin,,28734,35.1829,-83.3865,America/New_York,-14400,USD,Frontier Communications Solutions,ADSL Frontier Communications Durham NC,"AS5650 Frontier Communications of America, Inc.",FRONTIER-FRTR,False,False,False
65,41.74.132.88,9,success,非洲,AF,佛得角,CV,PR,Praia,培亞,,,14.9315,-23.5125,Atlantic/Cape_Verde,-3600,CVE,CVmultimedia ADSL,,AS37517 CV  Multimedia SA,CV-Multimedia,False,False,False
66,182.79.104.74,18,success,亚洲,AS,印度,IN,DL,National Capital Territory of Delhi,德里,,110001,28.6542,77.2373,Asia/Kolkata,19800,INR,Bharti Airtel Limited,Bharti Airtel Limited,AS9498 BHARTI Airtel Ltd.,BBIL-AP,False,False,False
67,1.117.177.7,2151,success,亚洲,AS,中国,CN,BJ,北京市,北京,,,39.9075,116.3972,Asia/Shanghai,28800,CNY,China Internet Network Information Center,"Tencent cloud computing (Beijing) Co., Ltd.",AS45090 Shenzhen Tencent Computer Systems Company Limited,TENCENT-NET-AP,False,False,False
68,98.191.183.124,189,success,北美洲,NA,美国,US,AZ,亞利桑那州,凤凰城,,85021,33.5594,-112.0902,America/Phoenix,-25200,USD,Cox Communications Inc.,Cox Communications,AS22773 Cox Communications Inc.,ASN-CXA-ALL-CCI-22773-RDC,False,False,False
69,178.219.122.192,18,success,欧洲,EU,波兰,PL,02,下西里西亚省,博加蒂尼亞,,59-920,50.9046,14.959,Europe/Warsaw,7200,PLN,C3 NET Sp. z o.o. Sp. k.,C3 NET Sp. z o.o. Sp. k,AS202281 C3 NET Sp. z o.o. Sp. k.,C3-AS,False,False,False
70,187.161.231.205,18,success,北美洲,NA,墨西哥,MX,NLE,新萊昂州,蒙特雷,,64720,25.6554,-100.3258,America/Monterrey,-18000,MXN,"Television Internacional, S.A. de C.V.","Television Internacional, S.A. de C.V","AS11888 Television Internacional, S.A. de C.V.","Television Internacional, S.A. de C.V.",False,False,False
71,85.105.80.94,99,success,亚洲,AS,土耳其,TR,34,伊斯坦布尔,Pendik,,34909,40.8805,29.2739,Europe/Istanbul,10800,TRY,Turk Telekomunikasyon A.S,TurkTelecom,AS9121 Turk Telekomunikasyon Anonim Sirketi,TTNet,False,False,False
72,216.255.218.76,18,success,北美洲,NA,美国,US,NM,新墨西哥州,Artesia,,88210,32.8402,-104.4058,America/Denver,-21600,USD,Penasco Valley Telecommunications,Penasco Valley Telecommunications,AS46595 Penasco Valley Telecommunications,PVTN,False,False,False
73,114.29.156.69,18,success,亚洲,AS,韩国,KR,11,首尔特别市,首尔特别市,,045,37.5576,126.9937,Asia/Seoul,32400,KRW,SK Broadband Co Ltd,TBROAD Suwon,AS23563 SK Broadband Co Ltd,SKB-VITSSEN-SUWON-AS-KR,False,False,False
74,93.160.80.7,18,success,欧洲,EU,丹麦,DK,82,中日德兰大区,奥胡斯,,8000,56.1567,10.2153,Europe/Copenhagen,7200,DKK,TDC A/S,TDC A/S,AS3292 TDC A/S,TDC,False,False,False
75,83.172.28.164,9,success,欧洲,EU,俄罗斯联邦,RU,TOM,Tomsk Oblast,謝韋爾斯克,,636017,56.6133,84.8328,Asia/Tomsk,25200,RUB,SELS,,"AS33892 The municipal enterprise ""Severskelektrosviaz""",SELS-AS,False,False,False
76,184.185.101.71,18,success,北美洲,NA,美国,US,CA,加州,Newport Beach,,92660,33.6268,-117.8718,America/Los_Angeles,-25200,USD,Cox Communications Inc.,Cox Communications Inc.,AS22773 Cox Communications Inc.,ASN-CXA-ALL-CCI-22773-RDC,False,False,False
77,210.101.83.129,54,success,亚洲,AS,韩国,KR,11,首尔特别市,Gangnam-gu,,062,37.5794,126.9754,Asia/Seoul,32400,KRW,Korea Telecom,Korea Telecom,AS4766 Korea Telecom,KIXS-AS-KR,False,False,False
78,121.217.171.229,18,success,大洋洲,OC,澳大利亚,AU,WA,Western Australia,珀斯,,6000,-31.9474,115.8648,Australia/Perth,28800,AUD,Telstra Internet,,AS1221 Telstra Corporation Ltd,ASN-TELSTRA,False,False,False
79,79.191.6.113,54,success,欧洲,EU,波兰,PL,14,Mazovia,华沙,,00-202,52.2484,21.0026,Europe/Warsaw,7200,PLN,Orange Polska Spolka Akcyjna,Orange Polska S.A.,AS5617 Orange Polska Spolka Akcyjna,TPNET,False,False,False
80,129.159.63.180,18,success,南美洲,SA,巴西,BR,SP,Sao Paulo,São Paulo,,01323,-23.5475,-46.6361,America/Sao_Paulo,-10800,BRL,Oracle Corporation,Oracle Cloud Infrastructure (sa-saopaulo-1),AS31898 Oracle Corporation,ORACLE-BMC-31898,False,False,True
81,119.165.179.54,36,success,亚洲,AS,中国,CN,SD,山东省,青岛市,,,36.061,120.3814,Asia/Shanghai,28800,CNY,CNC Group CHINA169 Shandong Province Network,,AS4837 CHINA UNICOM China169 Backbone,CHINA169-Backbone,False,False,False
82,39.174.65.227,27,success,亚洲,AS,中国,CN,ZJ,浙江省,杭州,,,30.2741,120.155,Asia/Shanghai,28800,CNY,China Mobile Communications Corporation,China Mobile,AS56041 China Mobile communications corporation,CMNET-Zhejiang-AP,True,False,False
83,43.138.163.20,27,success,亚洲,AS,中国,CN,BJ,北京市,海淀,Haidian Qu,,39.9786,116.302,Asia/Shanghai,28800,CNY,Shenzhen Tencent Computer Systems Company Limited,"Tencent Cloud Computing (Beijing) Co., Ltd",AS45090 Shenzhen Tencent Computer Systems Company Limited,TENCENT-NET-AP,False,False,False
84,200.234.219.48,18,success,南美洲,SA,巴西,BR,AM,亚马孙州,Itacoatiara,,69100,-3.13502,-58.4385,America/Manaus,-14400,BRL,Locaweb Serviços de Internet S/A,Locaweb Serviços de Internet S/A,AS27715 Locaweb Serviços de Internet S/A,Locaweb Serviços de Internet S/A,False,False,True
85,111.9.22.217,9,success,亚洲,AS,中国,CN,SC,四川省,成都,,,30.6498,104.0555,Asia/Shanghai,28800,CNY,China Mobile communications corporation,China Mobile,"AS9808 China Mobile Communications Group Co., Ltd.",CHINAMOBILE-CN,True,False,False
86,60.172.152.182,18,success,亚洲,AS,中国,CN,AH,安徽,蓉城,,,30.6007,117.925,Asia/Shanghai,28800,CNY,Chinanet,Chinanet AH,AS4134 CHINANET-BACKBONE,CHINANET-BACKBONE,False,False,False
87,159.75.56.103,9,success,亚洲,AS,中国,CN,BJ,北京市,海淀,Haidian Qu,,39.9786,116.302,Asia/Shanghai,28800,CNY,Shenzhen Tencent Computer Systems Company Limited,"Tencent Cloud Computing (Beijing) Co., Ltd",AS45090 Shenzhen Tencent Computer Systems Company Limited,TENCENT-NET-AP,False,False,False
88,195.242.235.224,18,success,欧洲,EU,波兰,PL,02,下西里西亚省,茲戈熱萊茨,,59-900,51.1449,15.0125,Europe/Warsaw,7200,PLN,C3 NET Sp. z o.o. Sp. k.,C3 NET Sp. z o.o. Sp. k,AS202281 C3 NET Sp. z o.o. Sp. k.,C3-AS,False,False,False
89,37.34.139.140,18,success,亚洲,AS,科威特,KW,HA,Hawalli,Ar Rumaythiyah,,,29.3165,48.0828,Asia/Kuwait,10800,KWD,Mobile Telecommunications Company,Zain,AS42961 Mobile Telecommunications Company,GPRS-AS,True,False,False
90,124.41.213.231,18,success,亚洲,AS,尼泊尔,NP,P3,Bagmati Province,加德滿都,,,27.7142,85.3145,Asia/Kathmandu,20700,NPR,WorldLink Communications,,AS17501 WorldLink Communications Pvt Ltd,WLINK-NEPAL-AS-AP,False,False,False
91,114.29.156.6,18,success,亚洲,AS,韩国,KR,11,首尔特别市,首尔特别市,,045,37.5576,126.9937,Asia/Seoul,32400,KRW,SK Broadband Co Ltd,TBROAD Suwon,AS23563 SK Broadband Co Ltd,SKB-VITSSEN-SUWON-AS-KR,False,False,False
92,178.219.115.217,18,success,欧洲,EU,波兰,PL,02,下西里西亚省,博加蒂尼亞,,59-920,50.9046,14.959,Europe/Warsaw,7200,PLN,C3 NET Sp. z o.o. Sp. k.,C3 NET Sp. z o.o. Sp. k,AS202281 C3 NET Sp. z o.o. Sp. k.,C3-AS,False,False,False
93,151.237.41.63,36,success,欧洲,EU,保加利亚,BG,24,Stara Zagora,Kazanlak,,6100,42.6223,25.3937,Europe/Sofia,10800,BGN,Nastech OOD,Nastek Ltd.,AS39024 Nastech OOD,nastech,False,False,False
94,101.35.126.190,2511,success,亚洲,AS,中国,CN,BJ,北京市,海淀,Haidian Qu,,39.9786,116.302,Asia/Shanghai,28800,CNY,Shenzhen Tencent Computer Systems Company Limited,"Tencent Cloud Computing (Beijing) Co., Ltd",AS45090 Shenzhen Tencent Computer Systems Company Limited,TENCENT-NET-AP,False,False,False
95,223.113.52.38,117,success,亚洲,AS,中国,CN,JS,江苏省,南京,,,32.0589,118.7738,Asia/Shanghai,28800,CNY,China Mobile communications corporation,China Mobile,AS56046 China Mobile communications corporation,CMNET-Jiangsu-AP,True,False,False
96,20.201.116.153,9,success,南美洲,SA,巴西,BR,SP,Sao Paulo,São Paulo,,01000-000,-23.55,-46.633,America/Sao_Paulo,-10800,BRL,Microsoft Corporation,Microsoft Azure Cloud (brazilsouth),AS8075 Microsoft Corporation,MICROSOFT-CORP-MSN-AS-BLOCK,False,False,True
97,178.219.120.129,18,success,欧洲,EU,波兰,PL,02,下西里西亚省,博加蒂尼亞,,59-920,50.9046,14.959,Europe/Warsaw,7200,PLN,C3 NET Sp. z o.o. Sp. k.,C3 NET Sp. z o.o. Sp. k,AS202281 C3 NET Sp. z o.o. Sp. k.,C3-AS,False,False,False
98,177.36.70.171,18,success,南美洲,SA,巴西,BR,MG,米纳斯吉拉斯州,Entre Rios de Minas,,35490,-20.703,-44.1103,America/Sao_Paulo,-10800,BRL,Paulo Marques De Araujo - ME,Paulo Marques De Araujo - ME,AS270951 PAULO MARQUES DE ARAUJO - ME,PAULO MARQUES DE ARAUJO - ME,False,False,False
99,78.89.152.191,9,success,亚洲,AS,科威特,KW,KU,Al Asimah,科威特市,,,29.3645,47.9889,Asia/Kuwait,10800,KWD,WTC Mobile IP,,AS29357 National Mobile Telecommunications Company,WATANIYATELECOM-AS,True,False,False
100,200.26.234.184,9,success,南美洲,SA,哥伦比亚,CO,HUI,Departamento del Huila,Neiva,,410008,2.9208,-75.283,America/Bogota,-18000,COP,Sistemas Computarizados Del Huila S.A.S.,Sistemas Computarizados Del Huila,AS269907 SISTEMAS COMPUTARIZADOS DEL HUILA S.A.S.,SISTEMAS COMPUTARIZADOS DEL HUILA S.A.S.,False,False,False
101,186.224.97.197,18,success,南美洲,SA,巴西,BR,SP,Sao Paulo,Pradopolis,,14850,-21.341,-48.0785,America/Sao_Paulo,-10800,BRL,Insidesign Tecnologia Ltda EPP,Insidesign Tecnologia Ltda EPP,AS262757 Insidesign Tecnologia Ltda EPP,Insidesign Tecnologia Ltda EPP,False,False,False
102,42.98.239.226,18,success,亚洲,AS,香港,HK,HCW,中西區,中環,,96521,22.2908,114.1501,Asia/Hong_Kong,28800,HKD,Hong Kong Telecommunications (HKT) Limited Mass Internet,Hong Kong Telecommunications (HKT) Limited,AS4760 HKT Limited,HKTIMS-AP,False,False,False
103,52.148.87.44,18,success,亚洲,AS,新加坡,SG,01,Central Singapore,新加坡,Bukit Merah,168812,1.283,103.833,Asia/Singapore,28800,SGD,Microsoft Corporation,Microsoft Azure Cloud (southeastasia),AS8075 Microsoft Corporation,MICROSOFT-CORP-MSN-AS-BLOCK,False,False,True
104,122.252.242.210,18,success,亚洲,AS,印度,IN,DL,National Capital Territory of Delhi,Alipur,,110036,28.7997,77.136,Asia/Kolkata,19800,INR,RailTel Corporation Of India Ltd,,AS24186 RailTel Corporation of India Ltd,RAILTEL-AS-IN,False,False,False
105,58.33.142.2,9,success,亚洲,AS,中国,CN,SH,上海,上海,,,31.2222,121.4581,Asia/Shanghai,28800,CNY,China Telecom (Group),Chinanet SH,AS4812 China Telecom (Group),CHINANET-SH-AP,False,False,False
106,211.43.12.240,912,success,亚洲,AS,韩国,KR,49,Jeju-do,Jeju City,,631,33.5109,126.5264,Asia/Seoul,32400,KRW,Korea Telecom,Kornet,AS4766 Korea Telecom,KIXS-AS-KR,False,False,False
107,150.158.166.12,6885,success,亚洲,AS,中国,CN,BJ,北京市,海淀,Haidian Qu,,39.9786,116.302,Asia/Shanghai,28800,CNY,Shenzhen Tencent Computer Systems Company Limited,"Tencent Cloud Computing (Beijing) Co., Ltd",AS45090 Shenzhen Tencent Computer Systems Company Limited,TENCENT-NET-AP,False,False,False
108,111.207.192.117,18,success,亚洲,AS,中国,CN,BJ,北京市,Xicheng District,,,39.9175,116.362,Asia/Shanghai,28800,CNY,China Unicom Beijing Province Network,,AS4808 China Unicom Beijing Province Network,CHINA169-BJ,False,False,False
109,191.211.39.143,36,success,南美洲,SA,巴西,BR,PE,伯南布哥州,累西腓,,,-8.05389,-34.8811,America/Recife,-10800,BRL,Vivo,TELEF�NICA BRASIL S.A,AS26599 TELEFÔNICA BRASIL S.A,TELEFÔNICA BRASIL S.A,True,False,False
110,103.93.184.11,18,success,亚洲,AS,印尼,ID,JB,西爪哇省,茂物,,,-6.59715,106.806,Asia/Jakarta,25200,IDR,METRASAT,,AS10137 Patrakom Internet Service Provider,PATRANET-AP,False,False,False
111,115.84.112.138,18,success,亚洲,AS,老挝,LA,VT,Vientiane Prefecture,永珍,,,17.9641,102.5987,Asia/Vientiane,25200,LAK,Lao Telecommunication Co Ltd,Mpls,"AS9873 Lao Telecom Communication, LTC",TELECOM-LA-AS-AP,False,True,False
112,78.89.154.21,18,success,亚洲,AS,科威特,KW,KU,Al Asimah,科威特市,,,29.3645,47.9889,Asia/Kuwait,10800,KWD,WTC Mobile IP,,AS29357 National Mobile Telecommunications Company,WATANIYATELECOM-AS,True,False,False
113,202.103.250.101,9,success,亚洲,AS,中国,CN,GX,广西壮族自治区,里兰,,,23.7248,108.808,Asia/Shanghai,28800,CNY,Chinanet,Chinanet GX,AS4134 CHINANET-BACKBONE,CHINANET-BACKBONE,False,False,False
114,177.153.60.138,18,success,南美洲,SA,巴西,BR,AM,亚马孙州,Itacoatiara,,69100,-3.13502,-58.4385,America/Manaus,-14400,BRL,Locaweb Serviços de Internet S/A,Locaweb Serviços de Internet S/A,AS27715 Locaweb Serviços de Internet S/A,Locaweb Serviços de Internet S/A,False,True,True
115,81.242.22.60,36,success,欧洲,EU,比利时,BE,WAL,Wallonia,热纳普,,1470,50.6095,4.4533,Europe/Brussels,7200,EUR,Proximus,Belgacom SA,AS5432 Proximus NV,PROXIMUS-ISP-AS,False,False,False
116,84.184.95.136,36,success,欧洲,EU,德国,DE,BB,勃兰登堡,Zobersdorf,,04924,51.495,13.4121,Europe/Berlin,7200,EUR,Deutsche Telekom AG,Deutsche Telekom AG,AS3320 Deutsche Telekom AG,DTAG,False,False,False
117,190.86.139.122,18,success,北美洲,NA,萨尔瓦多,SV,LI,Departamento de La Libertad,聖特克拉,,,13.6769,-89.2797,America/El_Salvador,-21600,USD,Telgua,CTE S.A. de C.V,AS14754 Telgua,Telgua,False,False,False
118,136.34.107.238,18,success,北美洲,NA,美国,US,MO,密苏里州,堪薩斯城,,64118,39.214,-94.5826,America/Chicago,-18000,USD,Google Fiber Inc.,Google Fiber Inc,AS16591 Google Fiber Inc.,GOOGLE-FIBER,False,False,False
119,5.152.235.220,9,success,欧洲,EU,波黑,BA,SRP,Republika Srpska,比耶利納,,,44.7555,19.2062,Europe/Sarajevo,7200,BAM,elitm235,,AS199051 D.O.O. Elit M Biljeljina,SCWLAN,True,False,False
120,178.219.115.85,9,success,欧洲,EU,波兰,PL,02,下西里西亚省,博加蒂尼亞,,59-920,50.9046,14.959,Europe/Warsaw,7200,PLN,C3 NET Sp. z o.o. Sp. k.,C3 NET Sp. z o.o. Sp. k,AS202281 C3 NET Sp. z o.o. Sp. k.,C3-AS,False,False,False
121,91.115.120.165,36,success,欧洲,EU,奥地利,AT,7,Tyrol,泰爾夫斯,,6410,47.3005,11.0689,Europe/Vienna,7200,EUR,HIGHWAY194,High Speed Internet Customers,AS8447 A1 Telekom Austria AG,A1TELEKOM-AT,False,False,False
122,195.242.234.240,18,success,欧洲,EU,波兰,PL,02,下西里西亚省,Sulikow,,59-975,51.077,15.0741,Europe/Warsaw,7200,PLN,C3 NET Sp. z o.o. Sp. k.,C3 NET Sp. z o.o. Sp. k,AS202281 C3 NET Sp. z o.o. Sp. k.,C3-AS,False,False,False
123,221.7.131.202,9,success,亚洲,AS,中国,CN,GX,广西壮族自治区,南宁市,,,22.817,108.367,Asia/Shanghai,28800,CNY,CNC Group CHINA169 Guangxi Province Network,,AS4837 CHINA UNICOM China169 Backbone,CHINA169-Backbone,False,False,False
124,193.176.215.250,9,success,亚洲,AS,格鲁吉亚,GE,TB,K'alak'i T'bilisi,第比利斯,,,41.6959,44.832,Asia/Tbilisi,14400,GEL,LLC Skytel,AIRCONNECT,AS49628 LLC Skytel,SKYTEL-AS,False,False,False
125,106.75.17.82,9,success,亚洲,AS,中国,CN,BJ,北京市,北京,,,39.9042,116.407,Asia/Shanghai,28800,CNY,UCLOUD,Shanghai UCloud Information Technology Company Limited,"AS9808 China Mobile Communications Group Co., Ltd.",CHINAMOBILE-CN,False,False,False
126,209.14.71.86,9,success,南美洲,SA,巴西,BR,SP,Sao Paulo,聖保羅,,01323,-23.5335,-46.6359,America/Sao_Paulo,-10800,BRL,AGIS,W I X NET DO BRASIL LTDA,AS268581 QNAX LTDA,QNAX LTDA,False,False,False
127,58.18.36.116,18,success,亚洲,AS,中国,CN,NM,内蒙古自治区,呼和浩特市,Saihan Qu,,40.8105,111.682,Asia/Shanghai,28800,CNY,CNC Group CHINA169 Neimeng Province Network,,AS4837 CHINA UNICOM China169 Backbone,CHINA169-Backbone,False,False,False
128,90.242.120.195,324,success,欧洲,EU,英国,GB,ENG,英格兰,韦克菲尔德,,WF3,53.7407,-1.4903,Europe/London,3600,GBP,Energis UK,,AS5378 Vodafone Limited,unspecified,True,False,False
129,178.219.127.83,18,success,欧洲,EU,波兰,PL,02,下西里西亚省,茲戈熱萊茨,,59-900,51.1449,15.0125,Europe/Warsaw,7200,PLN,C3 NET Sp. z o.o. Sp. k.,C3 NET Sp. z o.o. Sp. k,AS202281 C3 NET Sp. z o.o. Sp. k.,C3-AS,False,False,False
130,114.142.251.150,9,success,大洋洲,OC,关岛,GU,,Tamuning,塔穆宁,Harmon,96911,13.5034,144.805,Pacific/Guam,36000,USD,TeleGuam Holdings,TeleGuam Holdings,"AS9246 Teleguam Holdings, LLC",GTA-AP,False,False,False
131,49.244.249.85,36,success,亚洲,AS,尼泊尔,NP,P2,Province 2,Rajbiraj,,,26.5397,86.748,Asia/Kathmandu,20700,NPR,Nepal Telecommunications Corporation,Nepal Telecommunications Corporation Cellular Mobile and New Services,"AS23752 Nepal Telecommunications Corporation, Internet Services,",NPTELECOM-NP-AS,False,False,False
132,189.57.171.186,18,success,南美洲,SA,巴西,BR,SP,Sao Paulo,聖保羅,,01323,-23.5335,-46.6359,America/Sao_Paulo,-10800,BRL,Vivo,TELEF�NICA BRASIL S.A,AS10429 TELEFÔNICA BRASIL S.A,TELEFÔNICA BRASIL S.A,False,False,False
133,103.162.89.254,18,success,亚洲,AS,印尼,ID,JK,Jakarta,Pancoran,,,-6.24176,106.841,Asia/Jakarta,25200,IDR,Badan Pengelola Keuangan Haji,Badan Pengelola Keuangan Haji,AS147160 Badan Pengelola Keuangan Haji,IDNIC-BPKH-AS-ID,False,False,False
134,86.248.133.70,36,success,欧洲,EU,法国,FR,GES,Grand Est,Rochetaillee,,52210,47.85,5.1,Europe/Paris,7200,EUR,Orange,,AS3215 Orange S.A.,AS3215,False,False,False
135,181.30.28.35,9,success,南美洲,SA,阿根廷,AR,B,Buenos Aires,Campana,,2804,-34.1801,-58.9181,America/Argentina/Buenos_Aires,-10800,ARS,Telecom Argentina S.A,Fibertel,AS7303 Telecom Argentina S.A.,Telecom Argentina S.A.,False,False,False
136,61.216.81.84,18,success,亚洲,AS,台湾,TW,TPE,台北市,台北市,,,25.0504,121.5324,Asia/Taipei,28800,TWD,"Chunghwa Telecom Co., Ltd.",Chunghwa Telecom Co. Ltd.,AS3462 Data Communication Business Group,HINET,False,False,False
137,187.51.108.206,18,success,南美洲,SA,巴西,BR,SP,Sao Paulo,Guarulhos,,07000,-23.4118,-46.4392,America/Sao_Paulo,-10800,BRL,Vivo,TELEF�NICA BRASIL S.A,AS10429 TELEFÔNICA BRASIL S.A,TELEFÔNICA BRASIL S.A,False,False,False
138,89.160.185.15,18,success,欧洲,EU,冰岛,IS,1,Capital Region,雷克亞維克,,105,64.1369,-21.9139,Atlantic/Reykjavik,0,ISK,Vodafone Iceland (ex. Lina.Net),,AS12969 Vodafone Iceland,Vodafone_Iceland,False,False,False
139,108.58.167.30,18,success,北美洲,NA,美国,US,NJ,新泽西州,North Brunswick,,08902,40.4551,-74.4871,America/New_York,-14400,USD,Cablevision Systems Corp.,Static IP Services,AS6128 Cablevision Systems Corp.,CABLE-NET-1,False,False,False
140,90.226.130.135,18,success,欧洲,EU,瑞典,SE,C,Uppsala County,Enkoeping,,745 62,59.6323,17.0761,Europe/Stockholm,7200,SEK,Telia Company AB,Telia Company AB,AS3301 Telia Company AB,TELIANET-SWEDEN,False,False,False
141,49.198.102.240,45,success,大洋洲,OC,澳大利亚,AU,VIC,Victoria,墨尔本,,3000,-37.8159,144.9669,Australia/Melbourne,36000,AUD,SingTel Optus Pty Ltd,Optus Internet Pty Ltd,AS4804 Microplex PTY LTD,MPX-AS,False,False,False
142,144.22.150.85,18,success,南美洲,SA,巴西,BR,SP,Sao Paulo,São Paulo,,01323,-23.5475,-46.6361,America/Sao_Paulo,-10800,BRL,Oracle Corporation,Oracle Cloud Infrastructure (sa-saopaulo-1),AS31898 Oracle Corporation,ORACLE-BMC-31898,False,False,True
143,46.138.131.250,162,success,欧洲,EU,俄罗斯联邦,RU,MOW,Moscow,莫斯科,,102254,55.7483,37.6171,Europe/Moscow,10800,RUB,Moscow Local Telephone Network (PJSC MGTS),OAO Mgts),AS25513 PJSC Moscow city telephone network,ASN-MGTS-USPD,False,False,False
144,83.212.82.240,36,success,欧洲,EU,希腊,GR,I,Attica,雅典,,,37.987,23.7658,Europe/Athens,10800,EUR,National Infrastructures for Research and Technology S.A.,Greek Research and Technology Network S.A,AS5408 National Infrastructures for Research and Technology S.A.,GR-NET,False,False,False
145,45.176.233.226,9,success,南美洲,SA,哥伦比亚,CO,COR,Departamento de Cordoba,Lorica,,231020,9.2315,-75.8091,America/Bogota,-18000,COP,Cable Y Telecomunicaciones De Colombia S.A.S,IMPARTV,AS267869 CABLE Y TELECOMUNICACIONES DE COLOMBIA S.A.S (CABLETELCO),CABLE Y TELECOMUNICACIONES DE COLOMBIA S.A.S CABLETELCO,False,False,False
146,183.236.181.37,18,success,亚洲,AS,中国,CN,GD,广东,深圳,,,22.5431,114.058,Asia/Shanghai,28800,CNY,China Mobile,China Mobile Communications Corporation,"AS9808 China Mobile Communications Group Co., Ltd.",CHINAMOBILE-CN,True,False,False
147,195.242.233.157,9,success,欧洲,EU,波兰,PL,02,下西里西亚省,科瓦雷,,58-530,50.795,15.8379,Europe/Warsaw,7200,PLN,C3 NET Sp. z o.o. Sp. k.,C3 NET Sp. z o.o. Sp. k,AS202281 C3 NET Sp. z o.o. Sp. k.,C3-AS,False,False,False
148,61.164.202.218,18,success,亚洲,AS,中国,CN,ZJ,浙江省,温州市,,,27.996,120.6664,Asia/Shanghai,28800,CNY,Chinanet,Chinanet ZJ JX,AS4134 CHINANET-BACKBONE,CHINANET-BACKBONE,False,False,False
149,115.148.137.176,18,success,亚洲,AS,中国,CN,JX,江西,南昌,,,28.6796,115.8655,Asia/Shanghai,28800,CNY,Chinanet,Chinanet JX,AS4134 CHINANET-BACKBONE,CHINANET-BACKBONE,False,False,False
150,113.255.111.38,18,success,亚洲,AS,香港,HK,NST,沙田區,Shatin,,,22.3829,114.1779,Asia/Hong_Kong,28800,HKD,HGC Global Communications Limited,HGC Global Communications Limited,AS9304 HGC Global Communications Limited,HUTCHISON-AS-AP,False,False,False
151,180.113.191.240,18,success,亚洲,AS,中国,CN,JS,江苏省,无锡市,,,31.5618,120.2864,Asia/Shanghai,28800,CNY,Chinanet,Chinanet JS,AS4134 CHINANET-BACKBONE,CHINANET-BACKBONE,False,False,False
152,68.228.64.46,18,success,北美洲,NA,美国,US,CA,加州,Laguna Hills,,92653,33.5879,-117.6974,America/Los_Angeles,-25200,USD,Cox Communications Inc.,Cox Communications,AS22773 Cox Communications Inc.,ASN-CXA-ALL-CCI-22773-RDC,False,False,False
153,68.37.71.89,9,success,北美洲,NA,美国,US,MI,密歇根州,Southfield,,48075,42.4593,-83.2207,America/Detroit,-14400,USD,"Comcast Cable Communications, LLC","Comcast Cable Communications, Inc.","AS7922 Comcast Cable Communications, LLC",COMCAST-7922,False,False,False
154,24.54.103.39,18,success,北美洲,NA,美国,US,WA,华盛顿州,摩西湖市,,98837,47.1416,-119.2894,America/Los_Angeles,-25200,USD,Northland Cable Television Inc.,Northland Cable Television Inc.,AS40285 NORTHLAND CABLE TELEVISION INC.,NORTHLAND-CABLE,False,False,False
155,118.123.15.133,36,success,亚洲,AS,中国,CN,SC,四川省,中坝,,,30.2638,102.805,Asia/Shanghai,28800,CNY,Chinanet,Chinanet SC,AS4134 CHINANET-BACKBONE,CHINANET-BACKBONE,False,False,False
156,218.28.200.67,18,success,亚洲,AS,中国,CN,HA,河南,将官池,Jian'an,,34.0383,114.001,Asia/Shanghai,28800,CNY,CNC Group CHINA169 Henan Province Network,,AS4837 CHINA UNICOM China169 Backbone,CHINA169-Backbone,False,False,False
157,185.85.37.195,9,success,欧洲,EU,斯洛伐克,SK,BL,Bratislava,塞内茨,,903 01,48.2158,17.4114,Europe/Bratislava,7200,EUR,KALIANT s.r.o.,KALIANT Senec,AS39455 KALIANT s.r.o.,kaliant-as,False,True,False
158,109.190.41.135,36,success,欧洲,EU,法国,FR,IDF,Île-de-France,克利希丛林,,93390,48.9109,2.54615,Europe/Paris,7200,EUR,OVH SAS,OVH xDSL,AS35540 OVH SAS,OVH-TELECOM,False,False,False
159,157.245.55.105,9,success,亚洲,AS,新加坡,SG,05,South West,新加坡,Pioneer,627753,1.32123,103.695,Asia/Singapore,28800,SGD,"DigitalOcean, LLC","DigitalOcean, LLC","AS14061 DigitalOcean, LLC",DIGITALOCEAN-ASN,False,False,True
160,165.90.120.20,18,success,非洲,AF,佛得角,CV,BV,Boa Vista,Sal Rei,,,16.1793,-22.9165,Atlantic/Cape_Verde,-3600,CVE,CV  Multimedia SA,Dsl42,AS37517 CV  Multimedia SA,CV-Multimedia,True,False,False
161,49.244.228.37,36,success,亚洲,AS,尼泊尔,NP,P3,Bagmati Province,黑道達,,,27.4134,85.0318,Asia/Kathmandu,20700,NPR,Nepal Telecommunications Corporation,Nepal Telecommunications Corporation Cellular Mobile and New Services,"AS23752 Nepal Telecommunications Corporation, Internet Services,",NPTELECOM-NP-AS,False,False,False
162,186.239.98.190,18,success,南美洲,SA,巴西,BR,SP,Sao Paulo,聖保羅,,01000-000,-23.5505,-46.6333,America/Sao_Paulo,-10800,BRL,Vivo,TELEF�NICA BRASIL S.A,AS10429 TELEFÔNICA BRASIL S.A,TELEFÔNICA BRASIL S.A,False,False,False
163,185.246.130.20,56889,success,欧洲,EU,瑞典,SE,AB,Stockholm County,斯德哥尔摩,,100 05,59.3293,18.0686,Europe/Stockholm,7200,SEK,Amati Foundation,Icme Cloud,AS42237 AMATI FOUNDATION,ICME,False,False,True
164,153.34.104.12,36,success,亚洲,AS,中国,CN,JS,江苏省,苏州市,,,31.3093,120.602,Asia/Shanghai,28800,CNY,China Unicom Jiangsu Province Network,,AS4837 CHINA UNICOM China169 Backbone,CHINA169-Backbone,False,False,False
165,95.56.234.117,18,success,亚洲,AS,哈萨克斯坦,KZ,ALA,Almaty,阿拉木圖,,,43.2638,76.9293,Asia/Almaty,21600,KZT,JSC Kazakhtelecom,JSC Kazakhtelecom,AS9198 JSC Kazakhtelecom,KAZTELECOM-AS,False,False,True
166,195.242.234.103,18,success,欧洲,EU,波兰,PL,02,下西里西亚省,Sulikow,,59-975,51.077,15.0741,Europe/Warsaw,7200,PLN,C3 NET Sp. z o.o. Sp. k.,C3 NET Sp. z o.o. Sp. k,AS202281 C3 NET Sp. z o.o. Sp. k.,C3-AS,False,False,False
167,45.224.44.204,18,success,南美洲,SA,巴西,BR,MG,米纳斯吉拉斯州,Sao Joao do Manteninha,,35277-000,-18.7235,-41.1632,America/Sao_Paulo,-10800,BRL,Gomize Internet,Gomize Internet,AS266939 E SANTOS SOUZA - GOMIZE INTERNET,GOMIZE INTERNET,False,False,False
168,158.140.235.83,27,success,大洋洲,OC,新西兰,NZ,AUK,奧克蘭,奧克蘭都會區,,1010,-36.8506,174.7679,Pacific/Auckland,43200,NZD,Myrepublic Limited,AKL Pure MYR NZ,AS133579 MYREPUBLIC LIMITED,MYREPNZ-AS-AP,False,False,False
169,46.107.229.248,18,success,欧洲,EU,匈牙利,HU,BU,Budapest,布达佩斯,,1223,47.5636,19.0947,Europe/Budapest,7200,HUF,Szatmarnet,,AS58098 Szatmarnet Bt.,SZATMARNET-AS,False,True,False
170,123.168.49.122,9,success,亚洲,AS,中国,CN,SD,山东省,Xintai,,,35.894,117.925,Asia/Shanghai,28800,CNY,Chinanet Shandong Network,,AS4809 China Telecom Next Generation Carrier Network,CHINATELECOM-CORE-WAN-CN2,False,False,False
171,165.90.100.210,18,success,非洲,AF,佛得角,CV,SS,São Salvador do Mundo,Picos,,,15.0793,-23.6506,Atlantic/Cape_Verde,-3600,CVE,CV  Multimedia SA,Dsl22,AS37517 CV  Multimedia SA,CV-Multimedia,False,False,False
172,115.74.199.93,18,success,亚洲,AS,越南,VN,44,An Giang,Long Xuyen,,,10.3841,105.4386,Asia/Ho_Chi_Minh,25200,VND,VIETELxdsl,xDSL Services,AS7552 Viettel Group,VIETEL-AS-AP,False,False,False
173,103.59.203.142,18,success,亚洲,AS,印度,IN,MH,马哈拉施特拉邦,孟买,,400071,19.0748,72.8856,Asia/Kolkata,19800,INR,NET 4 U SERVICES PVT LTD,NET 4 U Services PVT LTD,AS134014 NET 4 U SERVICES PVT LTD,NET4USERVICES-AS-IN,False,False,False
174,152.67.53.110,18,success,南美洲,SA,巴西,BR,SP,Sao Paulo,São Paulo,,01323,-23.5475,-46.6361,America/Sao_Paulo,-10800,BRL,Oracle Corporation,Oracle Cloud Infrastructure (sa-saopaulo-1),AS31898 Oracle Corporation,ORACLE-BMC-31898,False,False,True
175,201.166.225.131,18,success,北美洲,NA,墨西哥,MX,NLE,新萊昂州,Salinas Victoria,,65500,25.9593,-100.2868,America/Monterrey,-18000,MXN,"Television Internacional, S.A. de C.V.","Television Internacional, S.A. de C.V","AS11888 Television Internacional, S.A. de C.V.","Television Internacional, S.A. de C.V.",False,False,False
176,124.221.211.39,9,success,亚洲,AS,中国,CN,GD,广东,深圳,,,22.5431,114.058,Asia/Shanghai,28800,CNY,China Internet Network Information Center,"Tencent cloud computing (Beijing) Co., Ltd.",AS45090 Shenzhen Tencent Computer Systems Company Limited,TENCENT-NET-AP,False,False,False
177,151.237.115.206,9,success,欧洲,EU,保加利亚,BG,23,索菲亞州,Elin Pelin,,2100,42.6661,23.5993,Europe/Sofia,10800,BGN,Pronet Telecom Ltd,Pronet Telecom Ltd.,AS50186 Pronet Telekom Ltd,PRONET-AS,False,False,False
178,219.78.77.136,18,success,亚洲,AS,香港,HK,HCW,中西區,中環,,96521,22.2908,114.1501,Asia/Hong_Kong,28800,HKD,PCCW IMS Limited,Hong Kong Telecommunications (HKT) Limited,AS4760 HKT Limited,HKTIMS-AP,False,False,False
179,186.179.100.109,9,success,南美洲,SA,哥伦比亚,CO,ANT,Antioquia,麦德林,,050001,6.2529,-75.5646,America/Bogota,-18000,COP,TV AZTECA SUCURSAL COLOMBIA,TV AZTECA SUCURSAL COLOMBIA,AS262186 TV AZTECA SUCURSAL COLOMBIA,TV AZTECA SUCURSAL COLOMBIA,False,False,False
180,190.203.4.149,18,success,南美洲,SA,委内瑞拉,VE,A,首都區,卡拉卡斯,,,10.5048,-66.9208,America/Caracas,-14400,VEF,"CANTV Servicios, Venezuela","CANTV Servicios, Venezuela","AS8048 CANTV Servicios, Venezuela","CANTV Servicios, Venezuela",False,False,False
181,2.203.44.186,36,success,欧洲,EU,德国,DE,BB,勃兰登堡,Lubin,,15907,51.9404,13.8866,Europe/Berlin,7200,EUR,Vodafone D2 GmbH,Vodafone D2 GmbH,AS3209 Vodafone GmbH,VODANET,False,False,False
182,144.172.71.106,18,success,北美洲,NA,美国,US,NY,纽约州,Staten Island,,10301,40.6295,-74.0938,America/New_York,-14400,USD,"GALAXYGATE, LLC",FranTech Solutions,"AS397031 GALAXYGATE, LLC",GALAXYGATE,False,True,False
183,5.152.239.35,9,success,欧洲,EU,波黑,BA,SRP,Republika Srpska,比耶利納,,,44.7555,19.2062,Europe/Sarajevo,7200,BAM,elitm239,,AS199051 D.O.O. Elit M Biljeljina,SCWLAN,True,False,False
184,103.52.66.18,18,success,亚洲,AS,印尼,ID,SU,北苏门答腊省,Sei Putih Barat,,,3.61477,98.6352,Asia/Jakarta,25200,IDR,PT Telemedia Network Cakrawala,,AS131735 PT Telemedia Network Cakrawala,IDNIC-TNC-ID,False,False,False
185,87.122.218.139,36,success,欧洲,EU,德国,DE,NW,North Rhine-Westphalia,Wetter,,58300,51.3885,7.3935,Europe/Berlin,7200,EUR,1&1 Versatel Deutschland GmbH,1&1 Versatel Deutschland GmbH,AS8881 1&1 Versatel Deutschland GmbH,VERSATEL,False,False,False
186,39.109.112.89,2808,success,亚洲,AS,香港,HK,NTW,Tsuen Wan District,葵涌,,,22.3692,114.132,Asia/Hong_Kong,28800,HKD,Yisu Cloud LTD,Ancent Group Limited,AS142403 YISU CLOUD LTD,YISUCLOUDLTD-HK,False,True,False
187,178.219.116.135,9,success,欧洲,EU,波兰,PL,02,下西里西亚省,博加蒂尼亞,,59-920,50.9046,14.959,Europe/Warsaw,7200,PLN,C3 NET Sp. z o.o. Sp. k.,C3 NET Sp. z o.o. Sp. k,AS202281 C3 NET Sp. z o.o. Sp. k.,C3-AS,False,False,False
188,78.130.99.218,18,success,欧洲,EU,葡萄牙,PT,11,里斯本區,里斯本,,2620-001,38.7599,-9.15765,Europe/Lisbon,3600,EUR,NOS COMUNICACOES S.A,NOS Comunicacoes S.A.,"AS2860 NOS COMUNICACOES, S.A.",NOS_COMUNICACOES,False,False,False
189,111.77.70.139,387,success,亚洲,AS,中国,CN,BJ,北京市,北京,,,39.9075,116.3972,Asia/Shanghai,28800,CNY,Chinanet,Chinanet JX,AS4134 CHINANET-BACKBONE,CHINANET-BACKBONE,False,False,False
190,186.77.56.74,18,success,北美洲,NA,尼加拉瓜,NI,MN,Departamento de Managua,馬納瓜,,,12.115,-86.2362,America/Managua,-21600,NIO,Telgua,TELEMATIX/ ENITEL,AS14754 Telgua,Telgua,True,True,False
191,223.18.53.220,18,success,亚洲,AS,香港,HK,HCW,中西區,中環,,96521,22.2908,114.1501,Asia/Hong_Kong,28800,HKD,HGC Global Communications Limited,HGC Global Communications Limited,AS9304 HGC Global Communications Limited,HUTCHISON-AS-AP,False,False,False
192,77.108.57.58,18,success,欧洲,EU,意大利,IT,21,皮埃蒙特,Alpignano,,10091,45.0979,7.5211,Europe/Rome,7200,EUR,BBBell s.r.l. - Telecommunication Services,,AS34606 B.B.Bell SPA,ASN-BBBELL,False,False,False
193,220.180.159.220,18,success,亚洲,AS,中国,CN,AH,安徽,合肥,Shushan Qu,,31.851,117.151,Asia/Shanghai,28800,CNY,Chinanet,Chinanet AH,AS4134 CHINANET-BACKBONE,CHINANET-BACKBONE,False,False,False
194,197.211.96.185,18,success,非洲,AF,马拉维,MW,S,Southern Region,布兰太尔,,,-15.7902,35.0023,Africa/Blantyre,7200,MWK,Skyband Corporation Limited,,AS37187 Inq. Digital Limited,SKYBAND,True,False,False
195,176.108.126.150,18,success,欧洲,EU,乌克兰,UA,63,Kharkiv,Kharkiv,,61085,49.982,36.2566,Europe/Kiev,10800,UAH,OPANKI.NET Ltd,OPANKY,AS213228 OPANKI.NET Ltd.,ASOPANKY,False,False,False
196,110.249.165.206,18,success,亚洲,AS,中国,CN,HE,河北省,石家庄市,,,38.036,114.4654,Asia/Shanghai,28800,CNY,China Unicom Hebei Province Network,,AS4837 CHINA UNICOM China169 Backbone,CHINA169-Backbone,False,True,False
197,186.200.91.70,9,success,南美洲,SA,巴西,BR,SP,Sao Paulo,聖保羅,,01000,-23.6283,-46.6409,America/Sao_Paulo,-10800,BRL,Vivo,TELEF�NICA BRASIL S.A,AS10429 TELEFÔNICA BRASIL S.A,TELEFÔNICA BRASIL S.A,False,False,False
198,58.65.171.162,27,success,亚洲,AS,巴基斯坦,PK,PB,Punjab,拉瓦尔品第,,46000,33.6054,73.0354,Asia/Karachi,18000,PKR,Nayatel (Pvt) Ltd,Micronet,AS23674 Nayatel (Pvt) Ltd,NAYATEL-PK,False,False,False
199,193.189.87.161,18,success,欧洲,EU,立陶宛,LT,KU,Kaunas,考那斯,,44001,54.9027,23.9096,Europe/Vilnius,10800,EUR,"UAB ""Kauno Interneto Sistemos""","UAB ""Kauno interneto sistemos""","AS25190 UAB ""Kauno interneto sistemos""",KIS-AS,False,False,False
200,185.85.38.81,18,success,欧洲,EU,斯洛伐克,SK,BL,Bratislava,塞内茨,,903 01,48.2158,17.4114,Europe/Bratislava,7200,EUR,KALIANT s.r.o.,KALIANT Senec,AS39455 KALIANT s.r.o.,kaliant-as,False,False,False
201,178.219.121.177,18,success,欧洲,EU,波兰,PL,02,下西里西亚省,博加蒂尼亞,,59-920,50.9046,14.959,Europe/Warsaw,7200,PLN,C3 NET Sp. z o.o. Sp. k.,C3 NET Sp. z o.o. Sp. k,AS202281 C3 NET Sp. z o.o. Sp. k.,C3-AS,False,False,False
202,178.128.248.37,18,success,欧洲,EU,荷兰,NL,NH,North Holland,阿姆斯特丹,,1098,52.352,4.9392,Europe/Amsterdam,7200,EUR,DigitalOcean,Digitalocean,"AS14061 DigitalOcean, LLC",DIGITALOCEAN-ASN,False,True,True
203,122.185.140.254,18,success,亚洲,AS,印度,IN,MH,马哈拉施特拉邦,孟买,,400076,19.0748,72.8856,Asia/Kolkata,19800,INR,Bharti Airtel Limited,Bharti Airtel Limited,AS9498 BHARTI Airtel Ltd.,BBIL-AP,False,False,False
204,59.53.175.23,9,success,亚洲,AS,中国,CN,JX,江西,南昌,,,28.6796,115.8655,Asia/Shanghai,28800,CNY,Chinanet,Chinanet JX,AS4134 CHINANET-BACKBONE,CHINANET-BACKBONE,False,False,False
205,186.56.196.148,18,success,南美洲,SA,阿根廷,AR,J,San Juan,圣胡安,,5400,-31.4374,-68.5612,America/Argentina/San_Juan,-10800,ARS,Telefonica de Argentina,Telefonica de Argentina,AS22927 Telefonica de Argentina,Telefonica de Argentina,False,False,False
206,91.121.40.244,9,success,欧洲,EU,法国,FR,HDF,Hauts-de-France,鲁贝,,59100,50.6917,3.20157,Europe/Paris,7200,EUR,OVH SAS,OVH ISP,AS16276 OVH SAS,OVH,False,True,True
207,183.2.62.89,387,success,亚洲,AS,中国,CN,GD,广东,广州市,,,23.1181,113.2539,Asia/Shanghai,28800,CNY,Chinanet,Chinanet GD,AS4134 CHINANET-BACKBONE,CHINANET-BACKBONE,False,False,False
208,178.219.120.174,18,success,欧洲,EU,波兰,PL,02,下西里西亚省,博加蒂尼亞,,59-920,50.9046,14.959,Europe/Warsaw,7200,PLN,C3 NET Sp. z o.o. Sp. k.,C3 NET Sp. z o.o. Sp. k,AS202281 C3 NET Sp. z o.o. Sp. k.,C3-AS,False,False,False
209,200.205.226.154,9,success,南美洲,SA,巴西,BR,SP,Sao Paulo,聖保羅,,01000-000,-23.5558,-46.6396,America/Sao_Paulo,-10800,BRL,Vivo,TELEF�NICA BRASIL S.A,AS10429 TELEFÔNICA BRASIL S.A,TELEFÔNICA BRASIL S.A,False,True,False
210,43.251.255.21,18,success,亚洲,AS,巴基斯坦,PK,PB,Punjab,拉合尔,,54000,31.5826,74.3276,Asia/Karachi,18000,PKR,Optix Pakistan (Pvt.) Limited,Optix Pakistan (Pvt.) Limited,AS136384 Optix Pakistan (Pvt.) Limited,OPTIX-AS-AP,False,False,False
211,182.138.120.174,945,success,亚洲,AS,中国,CN,SC,四川省,成都,,,30.6498,104.0555,Asia/Shanghai,28800,CNY,Chinanet,Chinanet SC,AS4134 CHINANET-BACKBONE,CHINANET-BACKBONE,False,False,False
212,96.90.7.195,9,success,北美洲,NA,美国,US,FL,佛罗里达州,杰克逊维尔,,32256,30.2183,-81.5621,America/New_York,-14400,USD,"Comcast Cable Communications, LLC","Comcast Cable Communications, LLC","AS7922 Comcast Cable Communications, LLC",COMCAST-7922,False,True,False
213,47.157.115.115,108,success,北美洲,NA,美国,US,CA,加州,聖貝納迪諾,,92404,34.1438,-117.2548,America/Los_Angeles,-25200,USD,"Frontier Communications of America, Inc.",Frontier Communications Corporation,"AS5650 Frontier Communications of America, Inc.",FRONTIER-FRTR,False,False,False
214,177.36.70.224,18,success,南美洲,SA,巴西,BR,MG,米纳斯吉拉斯州,Entre Rios de Minas,,35490,-20.703,-44.1103,America/Sao_Paulo,-10800,BRL,Paulo Marques De Araujo - ME,Paulo Marques De Araujo - ME,AS270951 PAULO MARQUES DE ARAUJO - ME,PAULO MARQUES DE ARAUJO - ME,False,False,False
215,190.182.179.76,9,success,南美洲,SA,阿根廷,AR,M,Mendoza,聖馬丁,,5570,-33.0819,-68.4642,America/Argentina/Mendoza,-10800,ARS,Tele Audio S.A,Tele Audio S.A,AS27983 Red Intercable Digital S.A.,Red Intercable Digital S.A.,False,False,False
216,178.219.118.207,9,success,欧洲,EU,波兰,PL,02,下西里西亚省,博加蒂尼亞,,59-920,50.9046,14.959,Europe/Warsaw,7200,PLN,C3 NET Sp. z o.o. Sp. k.,C3 NET Sp. z o.o. Sp. k,AS202281 C3 NET Sp. z o.o. Sp. k.,C3-AS,False,False,False
217,124.222.145.159,6669,success,亚洲,AS,中国,CN,GD,广东,深圳,,,22.5431,114.058,Asia/Shanghai,28800,CNY,China Internet Network Information Center,"Tencent cloud computing (Beijing) Co., Ltd.",AS45090 Shenzhen Tencent Computer Systems Company Limited,TENCENT-NET-AP,False,False,False
218,122.172.216.150,9,success,亚洲,AS,印度,IN,KA,卡纳塔克邦,班加羅爾,,560002,12.9634,77.5855,Asia/Kolkata,19800,INR,Bharti Airtel,Bharti Airtel Ltd.,"AS24560 Bharti Airtel Ltd., Telemedia Services",AIRTELBROADBAND-AS-AP,False,False,False
219,81.89.79.166,9,success,欧洲,EU,俄罗斯联邦,RU,MOW,Moscow,莫斯科,,102254,55.7483,37.6171,Europe/Moscow,10800,RUB,"CJSC ""Gazprom telecom""",,AS39045 Gazprom telecom LLC,Gaztelecom-AS,False,False,False
220,125.59.252.103,18,success,亚洲,AS,香港,HK,HCW,中西區,中環,,96521,22.2908,114.1501,Asia/Hong_Kong,28800,HKD,Hong Kong Cable Television Limited,Hong Kong Cable TV Ltd - Cable Multi-Media Services,AS9908 HK Cable TV Ltd,HKCABLE2-HK-AP,False,False,False
221,43.138.76.60,18,success,亚洲,AS,中国,CN,GD,广东,深圳,,,22.5431,114.058,Asia/Shanghai,28800,CNY,Shenzhen Tencent Computer Systems Company Limited,"Tencent Cloud Computing (Beijing) Co., Ltd",AS45090 Shenzhen Tencent Computer Systems Company Limited,TENCENT-NET-AP,False,False,False
222,170.239.100.1,18,success,南美洲,SA,秘鲁,PE,PIU,皮乌拉地区,San Martin,,,-5.18591,-80.6693,America/Lima,-18000,PEN,Wigo S.A.,Wigo S.A,AS22411 WIGO S.A.,WIGO S.A.,False,False,False
223,93.92.83.46,18,success,欧洲,EU,俄罗斯,RU,RYA,Ryazan Oblast,梁赞,Sovetskiy Rayon,390000,54.6245,39.7607,Europe/Moscow,10800,RUB,Sotcom,,AS34467 JSC Telephone Company Sotcom,SOTCOM-AS,False,False,False
224,149.34.21.254,18,success,欧洲,EU,西班牙,ES,CT,Catalonia,巴塞罗那,,08005,41.4007,2.19942,Europe/Madrid,7200,EUR,Adamo Telecom Iberia S.A.,Adamo Telecom Iberia S.A,AS35699 Adamo Telecom Iberia S.A.,ADAMOEU-AS,False,False,False
225,5.152.239.174,18,success,欧洲,EU,波黑,BA,SRP,Republika Srpska,比耶利納,,,44.7555,19.2062,Europe/Sarajevo,7200,BAM,elitm239,,AS199051 D.O.O. Elit M Biljeljina,SCWLAN,True,False,False
226,189.23.43.66,18,success,南美洲,SA,巴西,BR,SP,Sao Paulo,聖保羅,,01000-000,-23.5505,-46.6333,America/Sao_Paulo,-10800,BRL,Claro S.A.,Claro S.A,AS4230 CLARO S.A.,CLARO S.A.,True,False,False
227,110.34.3.147,18,success,亚洲,AS,尼泊尔,NP,P3,Bagmati Province,加德滿都,,,27.7142,85.3145,Asia/Kathmandu,20700,NPR,SUBISU C7,,"AS4007 Subisu Cablenet (Pvt) Ltd, Baluwatar, Kathmandu, Nepal",SUBISU-CABLENET-AS-AP,False,False,False
228,101.35.9.250,9,success,亚洲,AS,中国,CN,BJ,北京市,海淀,Haidian Qu,,39.9786,116.302,Asia/Shanghai,28800,CNY,Shenzhen Tencent Computer Systems Company Limited,"Tencent Cloud Computing (Beijing) Co., Ltd",AS45090 Shenzhen Tencent Computer Systems Company Limited,TENCENT-NET-AP,False,False,False
229,85.255.90.126,18,success,欧洲,EU,捷克,CZ,53,Pardubicky kraj,帕尔杜比采,,530 02,50.0128,15.965,Europe/Prague,7200,CZK,Tlapnet s.r.o.,Airnetworks 85 255,AS198668 Tlapnet s.r.o.,Tlapnet,False,False,False
230,103.153.22.59,18,success,亚洲,AS,印度,IN,TN,泰米尔纳德邦,Attur,,636141,11.6038,78.5941,Asia/Kolkata,19800,INR,V Cloud Solutions,V Cloud Solutions,AS58898 Rainbow communications India Pvt Ltd,RAINBOWISP-AS,False,False,False
231,223.67.235.15,18,success,亚洲,AS,中国,CN,JS,江苏省,无锡市,,,31.5618,120.2864,Asia/Shanghai,28800,CNY,China Mobile communications corporation,China Mobile,AS56046 China Mobile communications corporation,CMNET-Jiangsu-AP,True,False,False
232,65.2.96.219,6669,success,亚洲,AS,印度,IN,MH,马哈拉施特拉邦,Mumbai,,400001,19.076,72.8777,Asia/Kolkata,19800,INR,Amazon.com,AWS EC2 (ap-south-1),"AS16509 Amazon.com, Inc.",AMAZON-02,False,False,True
233,121.5.136.97,18,success,亚洲,AS,中国,CN,GD,广东,深圳,,,22.5431,114.058,Asia/Shanghai,28800,CNY,China Internet Network Information Center,"Tencent cloud computing (Beijing) Co., Ltd.",AS45090 Shenzhen Tencent Computer Systems Company Limited,TENCENT-NET-AP,False,False,False
234,113.161.161.235,18,success,亚洲,AS,越南,VN,27,Tinh Quang Nam,Thuan An,,,15.8529,108.3785,Asia/Ho_Chi_Minh,25200,VND,VietNam Post and Telecom Corporation,Vietnam Posts and Telecommunications Group,AS45899 VNPT Corp,VNPT-AS-VN,False,False,False
235,177.36.70.102,9,success,南美洲,SA,巴西,BR,MG,米纳斯吉拉斯州,Entre Rios de Minas,,35490,-20.703,-44.1103,America/Sao_Paulo,-10800,BRL,Paulo Marques De Araujo - ME,Paulo Marques De Araujo - ME,AS270951 PAULO MARQUES DE ARAUJO - ME,PAULO MARQUES DE ARAUJO - ME,False,False,False
236,110.40.245.171,18,success,亚洲,AS,中国,CN,BJ,北京市,朝外,Chaoyang Qu,,39.9084,116.442,Asia/Shanghai,28800,CNY,China Internet Network Information Center,"Tencent cloud computing (Beijing) Co., Ltd.",AS45090 Shenzhen Tencent Computer Systems Company Limited,TENCENT-NET-AP,False,False,False
237,193.198.199.238,18,success,欧洲,EU,克罗地亚,HR,21,City of Zagreb,萨格勒布,,10000,45.8293,15.9793,Europe/Zagreb,7200,HRK,CARNET,,AS2108 Croatian Academic and Research Network,CARNet-AS,False,False,False
238,191.10.139.15,945,success,南美洲,SA,巴西,BR,SP,Sao Paulo,聖保羅,,01000,-23.6283,-46.6409,America/Sao_Paulo,-10800,BRL,Vivo,TELEF�NICA BRASIL S.A,AS10429 TELEFÔNICA BRASIL S.A,TELEFÔNICA BRASIL S.A,True,False,False
239,111.43.19.230,9,success,亚洲,AS,中国,CN,HL,黑龙江省,哈尔滨市,,,45.8038,126.535,Asia/Shanghai,28800,CNY,China Mobile communications corporation,China Mobile,AS132525 HeiLongJiang Mobile Communication Company Limited,CMNET-HEILONGJIANG-CN,True,False,False
240,183.166.149.178,27,success,亚洲,AS,中国,CN,AH,安徽,黄山,,,29.7088,118.3094,Asia/Shanghai,28800,CNY,Chinanet,Chinanet AH,AS4134 CHINANET-BACKBONE,CHINANET-BACKBONE,False,True,False
241,109.223.191.249,18,success,欧洲,EU,法国,FR,BFC,Bourgogne-Franche-Comte,Mesnois,,39130,46.6046,5.6886,Europe/Paris,7200,EUR,France Telecom Orange,,AS3215 Orange S.A.,AS3215,False,False,False
242,112.141.38.88,18,success,大洋洲,OC,澳大利亚,AU,VIC,Victoria,墨尔本,,3000,-37.8159,144.9669,Australia/Melbourne,36000,AUD,Vocus PTY LTD,,AS9443 Vocus Retail,VOCUS-RETAIL-AU,False,False,False
243,81.17.25.50,90,success,欧洲,EU,瑞士,CH,ZH,Zurich,苏黎世,,8005,47.3934,8.5163,Europe/Zurich,7200,CHF,Private Layer INC,Private Layer INC,AS51852 Private Layer INC,PLI-AS,False,True,True
244,92.6.179.62,387,success,欧洲,EU,英国,GB,ENG,英格兰,Halstead,,CO9,51.9979,0.5886,Europe/London,3600,GBP,TalkTalk,Carphone Warehouse Broadband Services,AS13285 TalkTalk Communications Limited,OPALTELECOM-AS,False,False,False
245,217.28.145.174,18,success,欧洲,EU,波兰,PL,14,Mazovia,普沃茨克,,09-400,52.553,19.6812,Europe/Warsaw,7200,PLN,PETROTEL Sp. z o.o,Petrotel Sp. z o.o.,AS29007 Petrotel Sp. z o.o.,PETROTEL-AS,False,False,False
246,181.99.177.157,18,success,南美洲,SA,阿根廷,AR,C,布宜诺斯艾利斯,布宜诺斯艾利斯,,1871,-34.6037,-58.3816,America/Argentina/Buenos_Aires,-10800,ARS,Telecom Argentina S.A.,Telecom Personal Bs,AS7303 Telecom Argentina S.A.,Telecom Argentina S.A.,False,False,False
247,122.139.168.153,18,success,亚洲,AS,中国,CN,JL,吉林,长春,,,43.88,125.3247,Asia/Shanghai,28800,CNY,CNC Group CHINA169 Jilin Province Network,,AS4837 CHINA UNICOM China169 Backbone,CHINA169-Backbone,False,False,False
248,178.219.127.44,18,success,欧洲,EU,波兰,PL,02,下西里西亚省,茲戈熱萊茨,,59-900,51.1449,15.0125,Europe/Warsaw,7200,PLN,C3 NET Sp. z o.o. Sp. k.,C3 NET Sp. z o.o. Sp. k,AS202281 C3 NET Sp. z o.o. Sp. k.,C3-AS,False,False,False
249,94.200.50.6,18,success,亚洲,AS,阿联酋,AE,DU,Dubai,迪拜,,,25.2633,55.3087,Asia/Dubai,14400,AED,Emirates Integrated Telecommunications Company PJSC,Emirates Integrated Telecommunications Company PJSC,AS15802 Emirates Integrated Telecommunications Company PJSC,DU-AS1,False,False,False
250,93.49.39.200,36,success,欧洲,EU,意大利,IT,25,Lombardy,Milan,,20133,45.4722,9.1922,Europe/Rome,7200,EUR,Fastweb SpA,Fastweb POP Internet,AS12874 Fastweb SpA,FASTWEB,False,False,False
251,65.20.141.101,18,success,亚洲,AS,伊拉克,IQ,BG,Baghdad,巴格达,,,33.3364,44.4004,Asia/Baghdad,10800,IQD,EarthLink Ltd. Communications&Internet Services,EarthLink Ltd. Communications&Internet Services,AS50710 EarthLink Ltd. Communications&Internet Services,EarthLink-AS,False,False,False
252,101.109.253.90,18,success,亚洲,AS,泰国,TH,10,Bangkok,曼谷,,10170,13.7653,100.4536,Asia/Bangkok,25200,THB,TOT Public Company Limited,TOT Public Company Limited,AS23969 TOT Public Company Limited,TOT-NET,False,False,False
